sat1_satellite_id,sat1_epoch,sat1_mean_motion,sat1_eccentricity,sat1_inclination,sat1_raan,sat1_argument_of_perigee,sat1_mean_anomaly,sat1_perigee,sat1_apogee,sat1_period,sat1_semi_major_axis,sat1_orbital_energy,sat1_orbital_angular_momentum,sat1_rev_number,sat1_bstar,sat1_mean_motion_derivative,sat1_cluster,sat2_satellite_id,sat2_epoch,sat2_mean_motion,sat2_eccentricity,sat2_inclination,sat2_raan,sat2_argument_of_perigee,sat2_mean_anomaly,sat2_perigee,sat2_apogee,sat2_period,sat2_semi_major_axis,sat2_orbital_energy,sat2_orbital_angular_momentum,sat2_rev_number,sat2_bstar,sat2_mean_motion_derivative,sat2_cluster,mean_motion_difference,eccentricity_difference,inclination_difference,raan_difference,argument_of_perigee_difference,mean_anomaly_difference,perigee_difference,apogee_difference,period_difference,semi_major_axis_difference,orbital_energy_difference,orbital_angular_momentum_difference,bstar_difference,mean_motion_derivative_difference,synodic_period,close_approach
COSMOS 2407,25034.65037825,13.76270017,0.0038683,1.4478884955402038,1.4666176237433552,3.574338314975527,4.73782889956176,955.830925753472,1012.7358110614932,1.7438438463053407,7355.283368407483,-27096198.87060193,54145870841.79956,3130,7.7357e-05,9.1e-07,0,ONEWEB-0137,25034.55830599,13.1244235,0.0001882,1.5338494518594286,1.5695903042817685,1.6486519740678598,4.636879055626408,1219.4340090980786,1222.2915862551235,1.8286517499225747,7591.862797676601,-26251820.69425615,55010178676.82318,19916,-0.0012569,-4.39e-06,0,0.6382766699999998,0.0036801,-0.08596095631922474,-0.10297268053841324,1.9256863409076672,0.10094984393535178,-263.6030833446066,-209.55577519363032,-0.084807903617234,-236.579429269118,-844378.1763457805,-864307835.0236206,0.001334257,5.3e-06,37.60124900068807,False
NAVSTAR 76 (USA 266),25034.28999791,2.00550541,0.0086033,0.9639418552179642,1.907061932459636,4.203124593933021,2.065940999597932,19961.98459337165,20419.017719167114,11.967058219005233,26561.50115626938,-7503349.292175027,102891410956.73895,6583,0.0,-6e-08,2,STARLINK-2468,25034.59836476,15.06393502,0.0001584,0.9259757079993315,2.8485536175091974,1.8851318704083273,4.400081509362076,553.2714950777863,555.4654518101734,1.593209209156557,6925.36847344398,-28778284.02405398,52540031060.90823,21226,0.00014093,1.818e-05,0,-13.058429610000001,0.0084449,0.03796614721863267,-0.9414916850495614,2.3179927235246938,-2.3341405097641443,19408.71309829386,19863.55226735694,10.373849009848676,19636.1326828254,21274934.73187895,50351379895.83072,-0.00014093,-1.8239999999999998e-05,-1.8378932778885624,False
LAOSAT 1,25034.57751344,1.00273365,0.0001982,0.0002495820830351891,1.8117495020082257,3.147799044409885,3.2500823198937607,35784.93207356416,35801.64599773789,23.93457125927704,42164.289035651025,-4726753.977316832,129640671000.93086,3386,0.0,-3.39e-06,1,2024-247Y,25034.29191712,15.21268165,0.0003559,0.7852986796300847,2.1713187438455934,4.446732414938633,1.8373028675866747,506.70267214949035,511.59996385764407,1.577631120677528,6880.151318003567,-28967418.256991405,52368225171.73489,681,0.0010337,0.00023318,0,-14.209948,-0.00015769999999999998,-0.7850490975470495,-0.3595692418373677,-1.2989333705287476,1.412779452307086,35278.22940141467,35290.046033880244,22.356940138599512,35284.137717647456,24240664.279674575,77272445829.19597,-0.0010337,-0.00023657,-1.6889576232087524,False
ONEWEB-0457,25034.24747538,13.10375781,0.000163,1.53400827682136,2.368427502919573,1.656568787554906,4.628909882261801,1227.6039161051776,1230.0814648222686,1.8315356822059556,7599.842690463724,-26224256.082310986,55039082237.47787,14400,0.00036128,1.39e-06,0,2024-173G,25034.53008197,15.4013888,0.0009259,1.6997464879199937,1.9758209236712045,3.0611137764510827,3.2243980546214126,446.51787703583886,459.15425666443116,1.558301028021575,6823.8360668501355,-29206478.430540092,52153444173.89796,2022,0.0013521,0.00054499,0,-2.29763099,-0.0007629,-0.16573821109863363,0.3926065792483686,-1.4045449888961767,1.404511827640388,781.0860390693388,770.9272081578374,0.27323465418438064,776.0066236135881,2982222.3482291065,2885638063.5799103,-0.00099082,-0.0005436,-10.445541561919823,False
STARLINK-2468,25034.59836476,15.06393502,0.0001584,0.9259757079993315,2.8485536175091974,1.8851318704083273,4.400081509362076,553.2714950777863,555.4654518101734,1.593209209156557,6925.36847344398,-28778284.02405398,52540031060.90823,21226,0.00014093,1.818e-05,0,ONEWEB-0457,25034.24747538,13.10375781,0.000163,1.53400827682136,2.368427502919573,1.656568787554906,4.628909882261801,1227.6039161051776,1230.0814648222686,1.8315356822059556,7599.842690463724,-26224256.082310986,55039082237.47787,14400,0.00036128,1.39e-06,0,1.9601772100000012,-4.600000000000003e-06,-0.6080325688220286,0.4801261145896243,0.2285630828534213,-0.22882837289972446,-674.3324210273913,-674.6160130120952,-0.23832647304939858,-674.4742170197433,-2554027.941742994,-2499051176.5696335,-0.00022035000000000002,1.679e-05,12.2437909580634,False
STARLINK-6071,25034.37791359,15.02319439,0.0002328,0.7505439382351216,2.7200170994168227,3.7402475683408563,2.5441455066811103,565.2680497638275,568.4983281766117,1.5975297514605327,6937.88318897022,-28726373.08406195,52587480966.52662,10214,0.0036016999999999998,0.00048508,0,STARLINK-31513,25034.12251911,15.40689396,0.0001045,0.7505439382351216,0.9566847761881718,4.536821074938824,1.747654030557986,450.49752955923395,451.9233715433984,1.557744219069057,6822.210450551316,-29213437.835810848,52147253714.328064,4506,-1.7489e-05,-1.033e-05,0,-0.3836995699999992,0.00012829999999999997,0.0,1.7633323232286509,-0.7965735065979676,0.7964914761231243,114.7705202045936,116.57495663321333,0.03978553239147575,115.67273841890346,487064.75174889714,440227252.198555,0.0036191889999999997,0.00049541,-62.54893639833936,False
GLOBALSTAR M077,25034.47901796,12.62270425,8.7e-05,0.9076846574384311,2.4982101860978716,1.9402057349550084,5.729673333531356,1420.046292894167,1421.40205290025,1.9013358409312304,7791.7241728972085,-25578449.19526892,55729567324.651665,66026,0.00017331,-7.3e-07,0,STARLINK-31513,25034.12251911,15.40689396,0.0001045,0.7505439382351216,0.9566847761881718,4.536821074938824,1.747654030557986,450.49752955923395,451.9233715433984,1.557744219069057,6822.210450551316,-29213437.835810848,52147253714.328064,4506,-1.7489e-05,-1.033e-05,0,-2.7841897099999997,-1.7500000000000005e-05,0.15714071920330952,1.5415254099096998,-2.596615339983815,3.98201930297337,969.548763334933,969.4786813568517,0.3435916218621735,969.5137223458923,3634988.640541926,3582313610.323601,0.00019079900000000001,9.6e-06,-8.620102255891178,False
STARLINK-2446,25034.55412506,15.06386899,7.47e-05,0.9260123599136235,4.248295460303885,0.24954717645014923,6.035400913273952,553.8713843706846,554.9060374440951,1.5932161927279191,6925.388710907389,-28778199.927767947,52540108340.207924,21643,-0.00030003,-4.746e-05,0,STARLINK-30775,25034.34608588,15.02536727,9.28e-05,0.7504549264432698,2.5027637501163245,3.678035307153518,2.6065253194766393,565.5705221947146,566.8580691679936,1.597298726129572,6937.214295681354,-28729142.910299167,52584947079.0511,7222,1.0405000000000001e-05,-6.3e-07,0,0.038501719999999295,-1.8100000000000006e-05,0.17555743347035369,1.745531710187561,-3.4284881307033688,3.4288755937973123,-11.699137824030004,-11.952031723898472,-0.004082533401652766,-11.825584773964692,-49057.01746878028,-44838738.843177795,-0.000310435,-4.6830000000000004e-05,623.3487750677083,False
GLOBALSTAR M077,25034.47901796,12.62270425,8.7e-05,0.9076846574384311,2.4982101860978716,1.9402057349550084,5.729673333531356,1420.046292894167,1421.40205290025,1.9013358409312304,7791.7241728972085,-25578449.19526892,55729567324.651665,66026,0.00017331,-7.3e-07,0,STARLINK-1961,25034.11203833,16.01834996,0.0008416,0.9257261259162963,5.869270003093619,2.068012705420049,5.978044158065662,270.87962125023387,282.0686497150791,1.4982816619646364,6647.4741354826565,-29981345.82219466,51475083783.41689,22171,0.0015678,0.0091245,0,-3.3956457099999984,-0.0007546,-0.018041468477865252,-3.3710598169957473,-0.12780697046504064,-0.24837082453430526,1149.1666716439331,1139.333403185171,0.403054178966594,1144.250037414552,4402896.626925737,4254483541.2347717,-0.00139449,-0.00912523,-7.06787517005123,False
STARLINK-2673,25034.48500869,15.06368081,9.06e-05,0.9259442920727957,1.9847517734536597,1.141288251171612,5.143787247587885,553.8189413608607,555.0738322461502,1.5932360956604714,6925.446386803505,-28777960.25968351,52540327052.49396,20353,0.0010882,0.0001595,0,STARLINK-32292,25034.59547683,15.30190675,0.0001075,0.9278065583846736,3.1570667427379746,1.6543382567708573,4.630807055158718,481.6431739892978,483.1166506704485,1.56843198642548,6853.379912329873,-29080573.884637594,52266243688.53216,1399,2.7449e-05,4.54e-06,0,-0.2382259400000013,-1.689999999999999e-05,-0.0018622663118779137,-1.172314969284315,-0.5130500055992453,0.5129801924291666,72.17576737156287,71.95718157570172,0.024804109234991323,72.0664744736323,302613.6249540858,274083363.9617996,0.0010607510000000002,0.00015496,-100.74469640039909,False
NAVSTAR 76 (USA 266),25034.28999791,2.00550541,0.0086033,0.9639418552179642,1.907061932459636,4.203124593933021,2.065940999597932,19961.98459337165,20419.017719167114,11.967058219005233,26561.50115626938,-7503349.292175027,102891410956.73895,6583,0.0,-6e-08,2,STARLINK-1392,25034.37029430,15.06408562,0.0001564,0.9259722173408276,1.0337899318827772,1.8934274203430563,4.391780723439592,553.2391963553773,555.4054371760612,1.5931932813855028,6925.322316765719,-28778475.82884455,52539855990.92643,25854,0.00060478,8.74e-05,0,-13.05858021,0.0084469,0.037969637877136586,0.8732720005768588,2.3096971735899645,-2.3258397238416597,19408.74539701627,19863.612281991052,10.37386493761973,19636.17883950366,21275126.536669523,50351554965.81252,-0.00060478,-8.745999999999999e-05,-1.8378720821135857,False
